NORAD_CAT_ID,OBJECT_NAME,OBJECT_TYPE,EPOCH,MEAN_MOTION,ECCENTRICITY,INCLINATION,RA_OF_ASC_NODE,ARG_OF_PERICENTER,MEAN_ANOMALY,BSTAR,MEAN_MOTION_DOT,MEAN_MOTION_DDOT,TLE_LINE0,TLE_LINE1,TLE_LINE2,SEMIMAJOR_AXIS,PERIOD,APOGEE,PERIGEE,DECAYED
56780.0,STARLINK-5963,PAYLOAD,2024-02-03 16:08:16,14.98332159,0.0002724,70.0005,113.5294,260.5581,99.527,6.584e-05,6.93e-06,0.0,0 STARLINK-5963,1 56780U 23078P   24034.67241163  .00000693  00000-0  65840-4 0  9994,2 56780  70.0005 113.5294 0002724 260.5581  99.5270 14.98332159 38083,6950.186,96.107,573.944,570.158,0.0
56780.0,STARLINK-5963,PAYLOAD,2024-02-04 11:21:53,14.98329116,0.0002695,70.0005,111.5096,258.0608,102.0249,2.2994e-05,1.81e-06,0.0,0 STARLINK-5963,1 56780U 23078P   24035.47353413  .00000181  00000-0  22994-4 0  9990,2 56780  70.0005 111.5096 0002695 258.0608 102.0249 14.98329116 38467,6950.196,96.107,573.934,570.188,0.0
56780.0,STARLINK-5963,PAYLOAD,2024-02-04 14:34:09,14.98331272,0.0002655,70.0007,111.1733,257.1706,102.9156,4.7137e-05,4.7e-06,0.0,0 STARLINK-5963,1 56780U 23078P   24035.60705192  .00000470  00000-0  47137-4 0  9997,2 56780  70.0007 111.1733 0002655 257.1706 102.9156 14.98331272 38224,6950.189,96.107,573.899,570.209,0.0
56780.0,STARLINK-5963,PAYLOAD,2024-02-05 11:23:54,14.98330946,0.0002649,70.0006,108.9856,265.4455,94.6402,4.836e-06,-3.5e-07,0.0,0 STARLINK-5963,1 56780U 23078P   24036.47493248 -.00000035  00000-0  48360-5 0  9997,2 56780  70.0006 108.9856 0002649 265.4455  94.6402 14.98330946 38610,6950.19,96.107,573.896,570.214,0.0
56780.0,STARLINK-5963,PAYLOAD,2024-02-05 14:36:10,14.98330636,0.0002689,70.0005,108.6489,266.1562,93.9289,3.1834e-07,-8.9e-07,0.0,0 STARLINK-5963,1 56780U 23078P   24036.60845272 -.00000089  00000-0  31834-6 0  9998,2 56780  70.0005 108.6489 0002689 266.1562  93.9289 14.98330636 38373,6950.191,96.107,573.925,570.187,0.0
56780.0,STARLINK-5963,PAYLOAD,2024-02-06 11:25:55,14.98322404,0.0002629,70.0005,106.4597,264.6971,95.3888,-5.6442e-05,-7.66e-06,0.0,0 STARLINK-5963,1 56780U 23078P   24037.47634111 -.00000766  00000-0 -56442-4 0  9995,2 56780  70.0005 106.4597 0002629 264.6971  95.3888 14.98322404 38768,6950.216,96.107,573.909,570.254,0.0
56780.0,STARLINK-5963,PAYLOAD,2024-02-06 13:02:03,14.98323556,0.0002791,70.0006,106.2914,269.9329,90.151,-5.5652e-05,-7.57e-06,0.0,0 STARLINK-5963,1 56780U 23078P   24037.54310067 -.00000757  00000-0 -55652-4 0  9996,2 56780  70.0006 106.2914 0002791 269.9329  90.1510 14.98323556 38512,6950.213,96.107,574.018,570.138,0.0
56780.0,STARLINK-5963,PAYLOAD,2024-02-06 14:38:11,14.98324126,0.0002751,70.0007,106.1232,269.1975,90.8869,-5.0582e-05,-6.96e-06,0.0,0 STARLINK-5963,1 56780U 23078P   24037.60986042 -.00000696  00000-0 -50582-4 0  9994,2 56780  70.0007 106.1232 0002751 269.1975  90.8869 14.98324126 38529,6950.211,96.107,573.988,570.164,0.0
56780.0,STARLINK-5963,PAYLOAD,2024-02-07 11:27:56,14.98333423,0.0002783,70.0001,103.9346,272.1223,87.9617,5.7393e-05,5.92e-06,0.0,0 STARLINK-5963,1 56780U 23078P   24038.47773161  .00000592  00000-0  57393-4 0  9996,2 56780  70.0001 103.9346 0002783 272.1223  87.9617 14.98333423 38910,6950.182,96.107,573.982,570.113,0.0
56780.0,STARLINK-5963,PAYLOAD,2024-02-07 14:40:11,14.98335255,0.0002764,70.0002,103.5982,271.8938,88.1904,7.6635e-05,8.22e-06,0.0,0 STARLINK-5963,1 56780U 23078P   24038.61124964  .00000822  00000-0  76635-4 0  9999,2 56780  70.0002 103.5982 0002764 271.8938  88.1904 14.98335255 38671,6950.177,96.107,573.963,570.121,0.0
56780.0,STARLINK-5963,PAYLOAD,2024-02-07 21:04:44,14.98342368,0.0002763,70.0004,102.9245,269.4416,90.6426,-0.00012751,-1.615e-05,0.0,0 STARLINK-5963,1 56780U 23078P   24038.87828910 -.00001615  00000-0 -12751-3 0  9990,2 56780  70.0004 102.9245 0002763 269.4416  90.6426 14.98342368 38716,6950.155,96.106,573.94,570.099,0.0
56780.0,STARLINK-5963,PAYLOAD,2024-02-08 11:29:56,14.98329738,0.0002741,70.0,101.4095,267.3995,92.685,9.0723e-05,9.9e-06,0.0,0 STARLINK-5963,1 56780U 23078P   24039.47913174  .00000990  00000-0  90723-4 0  9993,2 56780  70.0000 101.4095 0002741 267.3995  92.6850 14.98329738 39062,6950.194,96.107,573.964,570.154,0.0
56780.0,STARLINK-5963,PAYLOAD,2024-02-08 13:06:04,14.98330593,0.0002729,70.0001,101.2411,267.7522,92.3324,9.8094e-05,1.078e-05,0.0,0 STARLINK-5963,1 56780U 23078P   24039.54589097  .00001078  00000-0  98094-4 0  9991,2 56780  70.0001 101.2411 0002729 267.7522  92.3324 14.98330593 38815,6950.191,96.107,573.953,570.159,0.0
56780.0,STARLINK-5963,PAYLOAD,2024-02-09 11:31:57,14.9833325,0.0002663,70.0001,98.8846,266.8994,93.186,-3.4376e-05,-5.03e-06,0.0,0 STARLINK-5963,1 56780U 23078P   24040.48053101 -.00000503  00000-0 -34376-4 0  9995,2 56780  70.0001  98.8846 0002663 266.8994  93.1860 14.98333250 39210,6950.183,96.107,573.899,570.197,0.0
56780.0,STARLINK-5963,PAYLOAD,2024-02-09 13:08:05,14.98333566,0.0002662,70.0001,98.7163,267.0037,93.0818,-3.0262e-05,-4.54e-06,0.0,0 STARLINK-5963,1 56780U 23078P   24040.54729054 -.00000454  00000-0 -30262-4 0  9994,2 56780  70.0001  98.7163 0002662 267.0037  93.0818 14.98333566 38964,6950.182,96.107,573.897,570.197,0.0
56780.0,STARLINK-5963,PAYLOAD,2024-02-10 11:33:59,14.98327686,0.0002591,70.0,96.3592,263.5103,96.5761,-4.5415e-05,-6.35e-06,0.0,0 STARLINK-5963,1 56780U 23078P   24041.48193410 -.00000635  00000-0 -45415-4 0  9996,2 56780  70.0000  96.3592 0002591 263.5103  96.5761 14.98327686 39365,6950.2,96.107,573.866,570.264,0.0
56780.0,STARLINK-5963,PAYLOAD,2024-02-10 13:10:07,14.98328424,0.0002578,70.0001,96.191,263.5792,96.5073,-3.496e-05,-5.1e-06,0.0,0 STARLINK-5963,1 56780U 23078P   24041.54869348 -.00000510  00000-0 -34960-4 0  9998,2 56780  70.0001  96.1910 0002578 263.5792  96.5073 14.98328424 39117,6950.198,96.107,573.855,570.271,0.0
56780.0,STARLINK-5963,PAYLOAD,2024-02-11 11:35:59,14.98329798,0.000258,70.0004,93.8358,259.0551,101.0318,1.445e-05,7.9e-07,0.0,0 STARLINK-5963,1 56780U 23078P   24042.48333080  .00000079  00000-0  14450-4 0  9991,2 56780  70.0004  93.8358 0002580 259.0551 101.0318 14.98329798 39519,6950.194,96.107,573.852,570.265,0.0
56780.0,STARLINK-5963,PAYLOAD,2024-02-11 13:12:07,14.98330427,0.0002579,70.0005,93.6676,259.3167,100.7702,2.1167e-05,1.6e-06,0.0,0 STARLINK-5963,1 56780U 23078P   24042.55009027  .00000160  00000-0  21167-4 0  9994,2 56780  70.0005  93.6676 0002579 259.3167 100.7702 14.98330427 39261,6950.192,96.107,573.849,570.264,0.0
56780.0,STARLINK-5963,PAYLOAD,2024-02-12 11:37:59,14.98336973,0.0002702,70.0002,91.3108,260.9615,99.1238,0.00010727,1.187e-05,0.0,0 STARLINK-5963,1 56780U 23078P   24043.48472143  .00001187  00000-0  10727-3 0  9999,2 56780  70.0002  91.3108 0002702 260.9615  99.1238 14.98336973 39668,6950.171,96.107,573.914,570.158,0.0
56780.0,STARLINK-5963,PAYLOAD,2024-02-12 13:14:07,14.98337508,0.0002707,70.0001,91.1423,261.6808,98.4045,0.00011079,1.229e-05,0.0,0 STARLINK-5963,1 56780U 23078P   24043.55148073  .00001229  00000-0  11079-3 0  9997,2 56780  70.0001  91.1423 0002707 261.6808  98.4045 14.98337508 39418,6950.17,96.107,573.916,570.153,0.0
56780.0,STARLINK-5963,PAYLOAD,2024-02-13 03:39:21,14.98327598,0.0002435,70.0009,89.6278,254.5885,105.5006,-2.2459e-05,-3.61e-06,0.0,0 STARLINK-5963,1 56780U 23078P   24044.15232961 -.00000361  00000-0 -22459-4 0  9997,2 56780  70.0009  89.6278 0002435 254.5885 105.5006 14.98327598 39763,6950.2,96.107,573.758,570.373,0.0
56780.0,STARLINK-5963,PAYLOAD,2024-02-13 13:16:10,14.98324057,0.0002374,70.0009,88.6169,261.8784,98.2106,-4.3106e-05,-6.07e-06,0.0,0 STARLINK-5963,1 56780U 23078P   24044.55289383 -.00000607  00000-0 -43106-4 0  9996,2 56780  70.0009  88.6169 0002374 261.8784  98.2106 14.98324057 39566,6950.211,96.107,573.726,570.426,0.0
56780.0,STARLINK-5963,PAYLOAD,2024-02-13 19:40:41,14.9833016,0.0002756,69.9999,87.9431,271.7772,88.3071,-5.7987e-05,-7.85e-06,0.0,0 STARLINK-5963,1 56780U 23078P   24044.81993014 -.00000785  00000-0 -57987-4 0  9997,2 56780  69.9999  87.9431 0002756 271.7772  88.3071 14.98330160 39604,6950.192,96.107,573.973,570.142,0.0
56780.0,STARLINK-5963,PAYLOAD,2024-02-14 05:17:30,14.98334384,0.0002976,69.9992,86.9327,273.1123,86.9695,-7.042e-05,-9.33e-06,0.0,0 STARLINK-5963,1 56780U 23078P   24045.22048709 -.00000933  00000-0 -70420-4 0  9997,2 56780  69.9992  86.9327 0002976 273.1123  86.9695 14.98334384 39923,6950.179,96.107,574.113,569.976,0.0
56780.0,STARLINK-5963,PAYLOAD,2024-02-14 11:42:02,14.98336565,0.0002815,69.9995,86.2595,271.101,88.9827,-1.6027e-05,-2.84e-06,0.0,0 STARLINK-5963,1 56780U 23078P   24045.48752333 -.00000284  00000-0 -16027-4 0  9992,2 56780  69.9995  86.2595 0002815 271.1010  88.9827 14.98336565 39709,6950.173,96.107,573.994,570.081,0.0
56780.0,STARLINK-5963,PAYLOAD,2024-02-14 19:42:42,14.98324558,0.0002772,69.9996,85.4173,271.9949,88.0892,0.00011731,1.307e-05,0.0,0 STARLINK-5963,1 56780U 23078P   24045.82132751  .00001307  00000-0  11731-3 0  9997,2 56780  69.9996  85.4173 0002772 271.9949  88.0892 14.98324558 39751,6950.21,96.107,574.001,570.148,0.0
56780.0,STARLINK-5963,PAYLOAD,2024-02-15 11:44:03,14.98322733,0.0002772,69.9997,83.7349,270.7437,89.3404,-1.1824e-06,-1.07e-06,0.0,0 STARLINK-5963,1 56780U 23078P   24046.48893260 -.00000107  00000-0 -11824-5 0  9993,2 56780  69.9997  83.7349 0002772 270.7437  89.3404 14.98322733 40115,6950.215,96.107,574.007,570.154,0.0
56780.0,STARLINK-5963,PAYLOAD,2024-02-15 19:44:44,14.98324718,0.0002769,69.9998,82.8932,270.0972,89.987,-2.5819e-06,-1.24e-06,0.0,0 STARLINK-5963,1 56780U 23078P   24046.82273245 -.00000124  00000-0 -25819-5 0  9994,2 56780  69.9998  82.8932 0002769 270.0972  89.9870 14.98324718 39900,6950.209,96.107,573.999,570.15,0.0
56780.0,STARLINK-5963,PAYLOAD,2024-02-16 03:45:24,14.98329912,0.0002796,69.9997,82.0523,269.9347,90.1492,-6.814e-07,-1.01e-06,0.0,0 STARLINK-5963,1 56780U 23078P   24047.15652957 -.00000101  00000-0 -68140-6 0  9992,2 56780  69.9997  82.0523 0002796 269.9347  90.1492 14.98329912 40211,6950.193,96.107,574.001,570.115,0.0
